start=new Date('2022-05-15T00:00:00.000Z').valueOf();
sats=[{"MEAN_ELEMENT_THEORY":"SGP4","TLE_LINE2":"2 46719  53.0554   3.1101 0001736  60.2719 299.8442 15.06418276 87181","TIME_SYSTEM":"UTC","TLE_LINE1":"1 46719U 20073BB  22134.89251718  .00000049  00000-0  22191-4 0  9994","EPOCH":"2022-05-14T21:25:13.484352","MEAN_MOTION":"15.06418276","LAUNCH_DATE":"2020-10-18","REV_AT_EPOCH":"8718","DECAY_DATE":null,"OBJECT_TYPE":"PAYLOAD","MEAN_MOTION_DOT":"0.00000049","PERIOD":"95.591","FILE":"3445938","INCLINATION":"53.0554","REF_FRAME":"TEME","NORAD_CAT_ID":"46719","EPHEMERIS_TYPE":"0","MEAN_ANOMALY":"299.8442","GP_ID":"203562545","OBJECT_ID":"2020-073BB","RA_OF_ASC_NODE":"3.1101","ECCENTRICITY":"0.00017360","SEMIMAJOR_AXIS":"6925.293","OBJECT_NAME":"STARLINK-1822","ARG_OF_PERICENTER":"60.2719","PERIAPSIS":"545.955","RCS_SIZE":"LARGE","CENTER_NAME":"EARTH","APOAPSIS":"548.360","ELEMENT_SET_NO":"999","COUNTRY_CODE":"US","MEAN_MOTION_DDOT":"0.0000000000000","CLASSIFICATION_TYPE":"U","SITE":"AFETR","BSTAR":"0.00002219100000"},{"INCLINATION":"53.0502","FILE":"3445495","DECAY_DATE":null,"OBJECT_TYPE":"PAYLOAD","MEAN_MOTION_DOT":"0.00087333","PERIOD":"91.867","EPHEMERIS_TYPE":"0","NORAD_CAT_ID":"46720","REF_FRAME":"TEME","TLE_LINE1":"1 46720U 20073BC  22134.42318457  .00087333  00000-0  78660-3 0  9991","TLE_LINE2":"2 46720  53.0502 288.3631 0000862 251.7135 108.3787 15.67484658 88191","MEAN_ELEMENT_THEORY":"SGP4","TIME_SYSTEM":"UTC","LAUNCH_DATE":"2020-10-18","REV_AT_EPOCH":"8819","EPOCH":"2022-05-14T10:09:23.146848","MEAN_MOTION":"15.67484658","PERIAPSIS":"365.523","RCS_SIZE":"LARGE","ARG_OF_PERICENTER":"251.7135","CLASSIFICATION_TYPE":"U","SITE":"AFETR","BSTAR":"0.00078660000000","CENTER_NAME":"EARTH","APOAPSIS":"366.686","ELEMENT_SET_NO":"999","MEAN_MOTION_DDOT":"0.0000000000000","COUNTRY_CODE":"US","OBJECT_ID":"2020-073BC","MEAN_ANOMALY":"108.3787","GP_ID":"203528275","ECCENTRICITY":"0.00008620","SEMIMAJOR_AXIS":"6744.239","OBJECT_NAME":"STARLINK-1823","RA_OF_ASC_NODE":"288.3631"},{"APOAPSIS":"548.361","CENTER_NAME":"EARTH","COUNTRY_CODE":"US","MEAN_MOTION_DDOT":"0.0000000000000","ELEMENT_SET_NO":"999","SITE":"AFETR","CLASSIFICATION_TYPE":"U","BSTAR":"0.00007807500000","ARG_OF_PERICENTER":"60.6470","RCS_SIZE":"LARGE","PERIAPSIS":"546.052","RA_OF_ASC_NODE":"38.2152","SEMIMAJOR_AXIS":"6925.341","ECCENTRICITY":"0.00016670","OBJECT_NAME":"STARLINK-1825","MEAN_ANOMALY":"299.4685","GP_ID":"203563547","OBJECT_ID":"2020-073BE","REF_FRAME":"TEME","EPHEMERIS_TYPE":"0","NORAD_CAT_ID":"46722","DECAY_DATE":null,"PERIOD":"95.592","OBJECT_TYPE":"PAYLOAD","MEAN_MOTION_DOT":"0.00000882","FILE":"3445938","INCLINATION":"53.0565","EPOCH":"2022-05-14T20:51:23.489568","MEAN_MOTION":"15.06402424","REV_AT_EPOCH":"8668","LAUNCH_DATE":"2020-10-18","MEAN_ELEMENT_THEORY":"SGP4","TLE_LINE2":"2 46722  53.0565  38.2152 0001667  60.6470 299.4685 15.06402424 86680","TIME_SYSTEM":"UTC","TLE_LINE1":"1 46722U 20073BE  22134.86902187  .00000882  00000-0  78075-4 0  9995"},{"TLE_LINE1":"1 46723U 20073BF  22134.89482158  .00000093  00000-0  25151-4 0  9991","TLE_LINE2":"2 46723  53.0550 358.1050 0001709  65.8950 294.2218 15.06413027 87253","MEAN_ELEMENT_THEORY":"SGP4","TIME_SYSTEM":"UTC","LAUNCH_DATE":"2020-10-18","REV_AT_EPOCH":"8725","EPOCH":"2022-05-14T21:28:32.584512","MEAN_MOTION":"15.06413027","FILE":"3445938","INCLINATION":"53.0550","DECAY_DATE":null,"PERIOD":"95.591","OBJECT_TYPE":"PAYLOAD","MEAN_MOTION_DOT":"0.00000093","NORAD_CAT_ID":"46723","EPHEMERIS_TYPE":"0","REF_FRAME":"TEME","OBJECT_ID":"2020-073BF","MEAN_ANOMALY":"294.2218","GP_ID":"203562515","ECCENTRICITY":"0.00017090","SEMIMAJOR_AXIS":"6925.309","OBJECT_NAME":"STARLINK-1826","RA_OF_ASC_NODE":"358.1050","PERIAPSIS":"545.990","RCS_SIZE":"LARGE","ARG_OF_PERICENTER":"65.8950","CLASSIFICATION_TYPE":"U","SITE":"AFETR","BSTAR":"0.00002515100000","CENTER_NAME":"EARTH","APOAPSIS":"548.357","ELEMENT_SET_NO":"999","COUNTRY_CODE":"US","MEAN_MOTION_DDOT":"0.0000000000000"},{"TLE_LINE1":"1 46725U 20073BH  22134.89851897 -.00000471  00000-0 -12700-4 0  9991","TIME_SYSTEM":"UTC","MEAN_ELEMENT_THEORY":"SGP4","TLE_LINE2":"2 46725  53.0568  38.0740 0001793  49.0017 311.1126 15.06399460 86693","REV_AT_EPOCH":"8669","LAUNCH_DATE":"2020-10-18","MEAN_MOTION":"15.06399460","EPOCH":"2022-05-14T21:33:52.039008","INCLINATION":"53.0568","FILE":"3445938","PERIOD":"95.592","OBJECT_TYPE":"PAYLOAD","MEAN_MOTION_DOT":"-0.00000471","DECAY_DATE":null,"EPHEMERIS_TYPE":"0","NORAD_CAT_ID":"46725","REF_FRAME":"TEME","OBJECT_ID":"2020-073BH","GP_ID":"203562046","MEAN_ANOMALY":"311.1126","OBJECT_NAME":"STARLINK-1828","SEMIMAJOR_AXIS":"6925.350","ECCENTRICITY":"0.00017930","RA_OF_ASC_NODE":"38.0740","RCS_SIZE":"LARGE","PERIAPSIS":"545.973","ARG_OF_PERICENTER":"49.0017","BSTAR":"-0.00001270000000","SITE":"AFETR","CLASSIFICATION_TYPE":"U","COUNTRY_CODE":"US","MEAN_MOTION_DDOT":"0.0000000000000","ELEMENT_SET_NO":"999","APOAPSIS":"548.457","CENTER_NAME":"EARTH"},{"RCS_SIZE":"LARGE","PERIAPSIS":"545.549","ARG_OF_PERICENTER":"46.5035","BSTAR":"0.00006328300000","SITE":"AFETR","CLASSIFICATION_TYPE":"U","MEAN_MOTION_DDOT":"0.0000000000000","COUNTRY_CODE":"US","ELEMENT_SET_NO":"999","APOAPSIS":"548.894","CENTER_NAME":"EARTH","OBJECT_ID":"2020-073BJ","GP_ID":"203562292","MEAN_ANOMALY":"313.6154","OBJECT_NAME":"STARLINK-1829","SEMIMAJOR_AXIS":"6925.357","ECCENTRICITY":"0.00024150","RA_OF_ASC_NODE":"23.2709","FILE":"3445938","INCLINATION":"53.0552","MEAN_MOTION_DOT":"0.00000661","OBJECT_TYPE":"PAYLOAD","PERIOD":"95.592","DECAY_DATE":null,"EPHEMERIS_TYPE":"0","NORAD_CAT_ID":"46726","REF_FRAME":"TEME","TLE_LINE1":"1 46726U 20073BJ  22134.85750968  .00000661  00000-0  63283-4 0  9996","TIME_SYSTEM":"UTC","MEAN_ELEMENT_THEORY":"SGP4","TLE_LINE2":"2 46726  53.0552  23.2709 0002415  46.5035 313.6154 15.06397355 86893","REV_AT_EPOCH":"8689","LAUNCH_DATE":"2020-10-18","MEAN_MOTION":"15.06397355","EPOCH":"2022-05-14T20:34:48.836352"},{"MEAN_ANOMALY":"294.0341","GP_ID":"203563048","OBJECT_ID":"2020-073BK","RA_OF_ASC_NODE":"358.1685","ECCENTRICITY":"0.00014800","SEMIMAJOR_AXIS":"6925.339","OBJECT_NAME":"STARLINK-1830","ARG_OF_PERICENTER":"66.0803","PERIAPSIS":"546.179","RCS_SIZE":"LARGE","CENTER_NAME":"EARTH","APOAPSIS":"548.229","ELEMENT_SET_NO":"999","COUNTRY_CODE":"US","MEAN_MOTION_DDOT":"0.0000000000000","CLASSIFICATION_TYPE":"U","SITE":"AFETR","BSTAR":"0.00012499000000","MEAN_ELEMENT_THEORY":"SGP4","TLE_LINE2":"2 46727  53.0547 358.1685 0001480  66.0803 294.0341 15.06403219 87250","TIME_SYSTEM":"UTC","TLE_LINE1":"1 46727U 20073BK  22134.88008420  .00001581  00000-0  12499-3 0  9993","EPOCH":"2022-05-14T21:07:19.274880","MEAN_MOTION":"15.06403219","LAUNCH_DATE":"2020-10-18","REV_AT_EPOCH":"8725","DECAY_DATE":null,"OBJECT_TYPE":"PAYLOAD","PERIOD":"95.592","MEAN_MOTION_DOT":"0.00001581","FILE":"3445938","INCLINATION":"53.0547","REF_FRAME":"TEME","EPHEMERIS_TYPE":"0","NORAD_CAT_ID":"46727"},{"TIME_SYSTEM":"UTC","TLE_LINE2":"2 46740  53.0545 109.2377 0002378  52.8127 307.3078 15.06396046 86337","MEAN_ELEMENT_THEORY":"SGP4","TLE_LINE1":"1 46740U 20074B   22134.64142920 -.00000953  00000-0 -45063-4 0  9995","MEAN_MOTION":"15.06396046","EPOCH":"2022-05-14T15:23:39.482880","LAUNCH_DATE":"2020-10-24","REV_AT_EPOCH":"8633","OBJECT_TYPE":"PAYLOAD","MEAN_MOTION_DOT":"-0.00000953","PERIOD":"95.592","DECAY_DATE":null,"FILE":"3445938","INCLINATION":"53.0545","REF_FRAME":"TEME","NORAD_CAT_ID":"46740","EPHEMERIS_TYPE":"0","GP_ID":"203562516","MEAN_ANOMALY":"307.3078","OBJECT_ID":"2020-074B","RA_OF_ASC_NODE":"109.2377","OBJECT_NAME":"STARLINK-1848","ECCENTRICITY":"0.00023780","SEMIMAJOR_AXIS":"6925.361","ARG_OF_PERICENTER":"52.8127","PERIAPSIS":"545.579","RCS_SIZE":"LARGE","ELEMENT_SET_NO":"999","MEAN_MOTION_DDOT":"0.0000000000000","COUNTRY_CODE":"US","CENTER_NAME":"EARTH","APOAPSIS":"548.873","BSTAR":"-0.00004506300000","CLASSIFICATION_TYPE":"U","SITE":"AFETR"},{"COUNTRY_CODE":"US","MEAN_MOTION_DDOT":"0.0000000000000","ELEMENT_SET_NO":"999","APOAPSIS":"548.789","CENTER_NAME":"EARTH","BSTAR":"0.00010947000000","SITE":"AFETR","CLASSIFICATION_TYPE":"U","ARG_OF_PERICENTER":"53.8554","RCS_SIZE":"LARGE","PERIAPSIS":"545.604","RA_OF_ASC_NODE":"105.6447","OBJECT_NAME":"STARLINK-1865","SEMIMAJOR_AXIS":"6925.332","ECCENTRICITY":"0.00023000","GP_ID":"203528027","MEAN_ANOMALY":"306.2648","OBJECT_ID":"2020-074C","REF_FRAME":"TEME","NORAD_CAT_ID":"46741","EPHEMERIS_TYPE":"0","OBJECT_TYPE":"PAYLOAD","PERIOD":"95.592","MEAN_MOTION_DOT":"0.00001349","DECAY_DATE":null,"FILE":"3445495","INCLINATION":"53.0551","MEAN_MOTION":"15.06405527","EPOCH":"2022-05-14T07:50:30.232320","REV_AT_EPOCH":"8636","LAUNCH_DATE":"2020-10-24","TIME_SYSTEM":"UTC","MEAN_ELEMENT_THEORY":"SGP4","TLE_LINE2":"2 46741  53.0551 105.6447 0002300  53.8554 306.2648 15.06405527 86362","TLE_LINE1":"1 46741U 20074C   22134.32673880  .00001349  00000-0  10947-3 0  9995"},{"RA_OF_ASC_NODE":"104.2893","SEMIMAJOR_AXIS":"6925.349","ECCENTRICITY":"0.00020500","OBJECT_NAME":"STARLINK-1872","MEAN_ANOMALY":"305.4906","GP_ID":"203562293","OBJECT_ID":"2020-074D","APOAPSIS":"548.634","CENTER_NAME":"EARTH","MEAN_MOTION_DDOT":"0.0000000000000","COUNTRY_CODE":"US","ELEMENT_SET_NO":"999","SITE":"AFETR","CLASSIFICATION_TYPE":"U","BSTAR":"0.00016927000000","ARG_OF_PERICENTER":"54.6274","RCS_SIZE":"LARGE","PERIAPSIS":"545.794","EPOCH":"2022-05-14T15:05:44.296224","MEAN_MOTION":"15.06399907","REV_AT_EPOCH":"8640","LAUNCH_DATE":"2020-10-24","TLE_LINE2":"2 46742  53.0558 104.2893 0002050  54.6274 305.4906 15.06399907 86407","MEAN_ELEMENT_THEORY":"SGP4","TIME_SYSTEM":"UTC","TLE_LINE1":"1 46742U 20074D   22134.62898491  .00002240  00000-0  16927-3 0  9991","REF_FRAME":"TEME","EPHEMERIS_TYPE":"0","NORAD_CAT_ID":"46742","DECAY_DATE":null,"MEAN_MOTION_DOT":"0.00002240","OBJECT_TYPE":"PAYLOAD","PERIOD":"95.592","FILE":"3445938","INCLINATION":"53.0558"}];
